STARLINK-11270 [DTC]    
1 60999U 24158K   26082.76055610  .00149515  00000+0  12210-2 0  9993
2 60999  53.1578 211.9702 0001466  41.3127 318.8002 15.69626533 89792
STARLINK-11290 [DTC]    
1 61000U 24158L   26082.75565159 -.00002312  00000+0 -14223-4 0  9993
2 61000  53.1579 211.9375 0000811  73.2447 286.8660 15.69728108 89868
STARLINK-11274 [DTC]    
1 61001U 24158M   26082.74584837 -.00004807  00000+0 -34859-4 0  9995
2 61001  53.1600 211.8710 0000651 105.2133 254.8957 15.69703223 89793
STARLINK-11288 [DTC]    
1 61002U 24158N   26081.65858017 -.00001373  00000+0 -64731-5 0  9997
2 61002  53.1590 217.1768 0001577  89.1324 270.9875 15.69697401 89624
STARLINK-32279          
1 61003U 24158P   26082.94837495  .00000757  00000+0  37690-4 0  9994
2 61003  53.1635 359.3476 0000451 162.8137 197.2880 15.30180972 87837
STARLINK-32336          
1 61004U 24158Q   26082.94414994 -.00001139  00000+0 -26338-4 0  9994
2 61004  53.1619 359.3242 0001507 102.5522 257.5647 15.30199938 87836
STARLINK-32284          
1 61005U 24158R   26082.95155198  .00001894  00000+0  76122-4 0  9996
2 61005  53.1623 359.3724 0001392 109.6115 250.5036 15.30165087 87760
STARLINK-32282          
1 61006U 24158S   26082.93466554  .00002907  00000+0  11033-3 0  9991
2 61006  53.1626 359.2630 0000688  37.9959 322.1091 15.30166118 87836
STARLINK-32360          
1 61007U 24158T   26082.94300651  .00001657  00000+0  68102-4 0  9999
2 61007  53.1601 344.0181 0000801  66.8736 293.2350 15.30179268 87975
STARLINK-32340          
1 61008U 24158U   26082.96208431  .00009851  00000+0  34418-3 0  9991
2 61008  53.1638 359.3603 0001104  71.2102 288.9019 15.30208795 87766
STARLINK-32347          
1 61010U 24158W   26082.93781790 -.00001342  00000+0 -33190-4 0  9991
2 61010  53.1617 359.2810 0000706 119.9017 240.2054 15.30197476 87760
STARLINK-11286 [DTC]    
1 61050U 24164A   26082.85608922 -.00005353  00000+0 -39410-4 0  9995
2 61050  53.1574 241.4523 0001450  76.9743 283.1437 15.69675605 87649
STARLINK-11252 [DTC]    
1 61051U 24164B   26082.46911743  .00005526  00000+0  50364-4 0  9992
2 61051  53.1583 243.3007 0000971 248.4248 111.6666 15.69744437 87583
STARLINK-11230 [DTC]    
1 61053U 24164D   26082.84134342  .00012842  00000+0  11059-3 0  9994
2 61053  53.1586 241.3530 0001037 220.8196 139.2745 15.69732960 87646
STARLINK-11294 [DTC]    
1 61054U 24164E   26082.70910186  .00004436  00000+0  41467-4 0  9995
2 61054  53.1582 241.9475 0001644 127.4108 232.7060 15.69704793 87626
STARLINK-11268 [DTC]    
1 61055U 24164F   26082.83152942  .00004625  00000+0  43035-4 0  9991
2 61055  53.1607 241.2888 0000423 190.3293 169.7716 15.69693149 87645
