[{"OBJECT_NAME":"STARLINK-11270 [DTC]","OBJECT_ID":"2024-158K","EPOCH":"2026-03-23T18:15:12.047040","MEAN_MOTION":15.69626533,"ECCENTRICITY":0.00014666,"INCLINATION":53.1578,"RA_OF_ASC_NODE":211.9702,"ARG_OF_PERICENTER":41.3127,"MEAN_ANOMALY":318.8002,"EPHEMERIS_TYPE":0,"CLASSIFICATION_TYPE":"U","NORAD_CAT_ID":60999,"ELEMENT_SET_NO":999,"REV_AT_EPOCH":8979,"BSTAR":0.0012210478,"MEAN_MOTION_DOT":0.00149515,"MEAN_MOTION_DDOT":0},{"OBJECT_NAME":"STARLINK-11290 [DTC]","OBJECT_ID":"2024-158L","EPOCH":"2026-03-23T18:08:08.297376","MEAN_MOTION":15.69728108,"ECCENTRICITY":8.117e-5,"INCLINATION":53.1579,"RA_OF_ASC_NODE":211.9375,"ARG_OF_PERICENTER":73.2447,"MEAN_ANOMALY":286.866,"EPHEMERIS_TYPE":0,"CLASSIFICATION_TYPE":"U","NORAD_CAT_ID":61000,"ELEMENT_SET_NO":999,"REV_AT_EPOCH":8986,"BSTAR":-1.4222675e-5,"MEAN_MOTION_DOT":-2.312e-5,"MEAN_MOTION_DDOT":0},{"OBJECT_NAME":"STARLINK-11274 [DTC]","OBJECT_ID":"2024-158M","EPOCH":"2026-03-23T17:54:01.299168","MEAN_MOTION":15.69703223,"ECCENTRICITY":6.511e-5,"INCLINATION":53.16,"RA_OF_ASC_NODE":211.871,"ARG_OF_PERICENTER":105.2133,"MEAN_ANOMALY":254.8957,"EPHEMERIS_TYPE":0,"CLASSIFICATION_TYPE":"U","NORAD_CAT_ID":61001,"ELEMENT_SET_NO":999,"REV_AT_EPOCH":8979,"BSTAR":-3.4859003e-5,"MEAN_MOTION_DOT":-4.807e-5,"MEAN_MOTION_DDOT":0},{"OBJECT_NAME":"STARLINK-11288 [DTC]","OBJECT_ID":"2024-158N","EPOCH":"2026-03-22T15:48:21.326688","MEAN_MOTION":15.69697401,"ECCENTRICITY":0.00015775,"INCLINATION":53.159,"RA_OF_ASC_NODE":217.1768,"ARG_OF_PERICENTER":89.1324,"MEAN_ANOMALY":270.9875,"EPHEMERIS_TYPE":0,"CLASSIFICATION_TYPE":"U","NORAD_CAT_ID":61002,"ELEMENT_SET_NO":999,"REV_AT_EPOCH":8962,"BSTAR":-6.473128e-6,"MEAN_MOTION_DOT":-1.373e-5,"MEAN_MOTION_DDOT":0},{"OBJECT_NAME":"STARLINK-32279","OBJECT_ID":"2024-158P","EPOCH":"2026-03-23T22:45:39.595680","MEAN_MOTION":15.30180972,"ECCENTRICITY":4.517e-5,"INCLINATION":53.1635,"RA_OF_ASC_NODE":359.3476,"ARG_OF_PERICENTER":162.8137,"MEAN_ANOMALY":197.288,"EPHEMERIS_TYPE":0,"CLASSIFICATION_TYPE":"U","NORAD_CAT_ID":61003,"ELEMENT_SET_NO":999,"REV_AT_EPOCH":8783,"BSTAR":3.7689689e-5,"MEAN_MOTION_DOT":7.57e-6,"MEAN_MOTION_DDOT":0},{"OBJECT_NAME":"STARLINK-32336","OBJECT_ID":"2024-158Q","EPOCH":"2026-03-23T22:39:34.554816","MEAN_MOTION":15.30199938,"ECCENTRICITY":0.0001507,"INCLINATION":53.1619,"RA_OF_ASC_NODE":359.3242,"ARG_OF_PERICENTER":102.5522,"MEAN_ANOMALY":257.5647,"EPHEMERIS_TYPE":0,"CLASSIFICATION_TYPE":"U","NORAD_CAT_ID":61004,"ELEMENT_SET_NO":999,"REV_AT_EPOCH":8783,"BSTAR":-2.63377e-5,"MEAN_MOTION_DOT":-1.139e-5,"MEAN_MOTION_DDOT":0},{"OBJECT_NAME":"STARLINK-32284","OBJECT_ID":"2024-158R","EPOCH":"2026-03-23T22:50:14.091072","MEAN_MOTION":15.30165087,"ECCENTRICITY":0.00013925,"INCLINATION":53.1623,"RA_OF_ASC_NODE":359.3724,"ARG_OF_PERICENTER":109.6115,"MEAN_ANOMALY":250.5036,"EPHEMERIS_TYPE":0,"CLASSIFICATION_TYPE":"U","NORAD_CAT_ID":61005,"ELEMENT_SET_NO":999,"REV_AT_EPOCH":8776,"BSTAR":7.6122132e-5,"MEAN_MOTION_DOT":1.894e-5,"MEAN_MOTION_DDOT":0},{"OBJECT_NAME":"STARLINK-32282","OBJECT_ID":"2024-158S","EPOCH":"2026-03-23T22:25:55.102656","MEAN_MOTION":15.30166118,"ECCENTRICITY":6.888e-5,"INCLINATION":53.1626,"RA_OF_ASC_NODE":359.263,"ARG_OF_PERICENTER":37.9959,"MEAN_ANOMALY":322.1091,"EPHEMERIS_TYPE":0,"CLASSIFICATION_TYPE":"U","NORAD_CAT_ID":61006,"ELEMENT_SET_NO":999,"REV_AT_EPOCH":8783,"BSTAR":0.00011033274,"MEAN_MOTION_DOT":2.907e-5,"MEAN_MOTION_DDOT":0},{"OBJECT_NAME":"STARLINK-32360","OBJECT_ID":"2024-158T","EPOCH":"2026-03-23T22:37:55.762464","MEAN_MOTION":15.30179268,"ECCENTRICITY":8.017e-5,"INCLINATION":53.1601,"RA_OF_ASC_NODE":344.0181,"ARG_OF_PERICENTER":66.8736,"MEAN_ANOMALY":293.235,"EPHEMERIS_TYPE":0,"CLASSIFICATION_TYPE":"U","NORAD_CAT_ID":61007,"ELEMENT_SET_NO":999,"REV_AT_EPOCH":8797,"BSTAR":6.8102019e-5,"MEAN_MOTION_DOT":1.657e-5,"MEAN_MOTION_DDOT":0},{"OBJECT_NAME":"STARLINK-32340","OBJECT_ID":"2024-158U","EPOCH":"2026-03-23T23:05:24.084384","MEAN_MOTION":15.30208795,"ECCENTRICITY":0.0001104,"INCLINATION":53.1638,"RA_OF_ASC_NODE":359.3603,"ARG_OF_PERICENTER":71.2102,"MEAN_ANOMALY":288.9019,"EPHEMERIS_TYPE":0,"CLASSIFICATION_TYPE":"U","NORAD_CAT_ID":61008,"ELEMENT_SET_NO":999,"REV_AT_EPOCH":8776,"BSTAR":0.00034418476,"MEAN_MOTION_DOT":9.851e-5,"MEAN_MOTION_DDOT":0},{"OBJECT_NAME":"STARLINK-32347","OBJECT_ID":"2024-158W","EPOCH":"2026-03-23T22:30:27.466560","MEAN_MOTION":15.30197476,"ECCENTRICITY":7.064e-5,"INCLINATION":53.1617,"RA_OF_ASC_NODE":359.281,"ARG_OF_PERICENTER":119.9017,"MEAN_ANOMALY":240.2054,"EPHEMERIS_TYPE":0,"CLASSIFICATION_TYPE":"U","NORAD_CAT_ID":61010,"ELEMENT_SET_NO":999,"REV_AT_EPOCH":8776,"BSTAR":-3.3190328e-5,"MEAN_MOTION_DOT":-1.342e-5,"MEAN_MOTION_DDOT":0},{"OBJECT_NAME":"STARLINK-11286 [DTC]","OBJECT_ID":"2024-164A","EPOCH":"2026-03-23T20:32:46.108608","MEAN_MOTION":15.69675605,"ECCENTRICITY":0.00014508,"INCLINATION":53.1574,"RA_OF_ASC_NODE":241.4523,"ARG_OF_PERICENTER":76.9743,"MEAN_ANOMALY":283.1437,"EPHEMERIS_TYPE":0,"CLASSIFICATION_TYPE":"U","NORAD_CAT_ID":61050,"ELEMENT_SET_NO":999,"REV_AT_EPOCH":8764,"BSTAR":-3.9409529e-5,"MEAN_MOTION_DOT":-5.353e-5,"MEAN_MOTION_DDOT":0},{"OBJECT_NAME":"STARLINK-11252 [DTC]","OBJECT_ID":"2024-164B","EPOCH":"2026-03-23T11:15:31.745952","MEAN_MOTION":15.69744437,"ECCENTRICITY":9.717e-5,"INCLINATION":53.1583,"RA_OF_ASC_NODE":243.3007,"ARG_OF_PERICENTER":248.4248,"MEAN_ANOMALY":111.6666,"EPHEMERIS_TYPE":0,"CLASSIFICATION_TYPE":"U","NORAD_CAT_ID":61051,"ELEMENT_SET_NO":999,"REV_AT_EPOCH":8758,"BSTAR":5.0364421e-5,"MEAN_MOTION_DOT":5.526e-5,"MEAN_MOTION_DDOT":0},{"OBJECT_NAME":"STARLINK-11230 [DTC]","OBJECT_ID":"2024-164D","EPOCH":"2026-03-23T20:11:32.071488","MEAN_MOTION":15.6973296,"ECCENTRICITY":0.0001037,"INCLINATION":53.1586,"RA_OF_ASC_NODE":241.353,"ARG_OF_PERICENTER":220.8196,"MEAN_ANOMALY":139.2745,"EPHEMERIS_TYPE":0,"CLASSIFICATION_TYPE":"U","NORAD_CAT_ID":61053,"ELEMENT_SET_NO":999,"REV_AT_EPOCH":8764,"BSTAR":0.0001105901,"MEAN_MOTION_DOT":0.00012842,"MEAN_MOTION_DDOT":0},{"OBJECT_NAME":"STARLINK-11294 [DTC]","OBJECT_ID":"2024-164E","EPOCH":"2026-03-23T17:01:06.400704","MEAN_MOTION":15.69704793,"ECCENTRICITY":0.00016441,"INCLINATION":53.1582,"RA_OF_ASC_NODE":241.9475,"ARG_OF_PERICENTER":127.4108,"MEAN_ANOMALY":232.706,"EPHEMERIS_TYPE":0,"CLASSIFICATION_TYPE":"U","NORAD_CAT_ID":61054,"ELEMENT_SET_NO":999,"REV_AT_EPOCH":8762,"BSTAR":4.1467063e-5,"MEAN_MOTION_DOT":4.436e-5,"MEAN_MOTION_DDOT":0},{"OBJECT_NAME":"STARLINK-11268 [DTC]","OBJECT_ID":"2024-164F","EPOCH":"2026-03-23T19:57:24.141888","MEAN_MOTION":15.69693149,"ECCENTRICITY":4.234e-5,"INCLINATION":53.1607,"RA_OF_ASC_NODE":241.2888,"ARG_OF_PERICENTER":190.3293,"MEAN_ANOMALY":169.7716,"EPHEMERIS_TYPE":0,"CLASSIFICATION_TYPE":"U","NORAD_CAT_ID":61055,"ELEMENT_SET_NO":999,"REV_AT_EPOCH":8764,"BSTAR":4.3034991e-5,"MEAN_MOTION_DOT":4.625e-5,"MEAN_MOTION_DDOT":0}]
